[{"OBJECT_NAME":"STARLINK-5291","OBJECT_ID":"2023-010E","EPOCH":"2026-03-09T23:37:28.451712","MEAN_MOTION":14.9834156,"ECCENTRICITY":0.00032267,"INCLINATION":70.0003,"RA_OF_ASC_NODE":43.5745,"ARG_OF_PERICENTER":257.1762,"MEAN_ANOMALY":102.9037,"EPHEMERIS_TYPE":0,"CLASSIFICATION_TYPE":"U","NORAD_CAT_ID":55273,"ELEMENT_SET_NO":999,"REV_AT_EPOCH":17283,"BSTAR":2.5217466e-5,"MEAN_MOTION_DOT":2.08e-6,"MEAN_MOTION_DDOT":0},{"OBJECT_NAME":"CZ-2C DEB","OBJECT_ID":"2013-035C","EPOCH":"2026-03-09T23:28:11.376480","MEAN_MOTION":14.97090669,"ECCENTRICITY":0.00414021,"INCLINATION":98.2221,"RA_OF_ASC_NODE":340.898,"ARG_OF_PERICENTER":245.2603,"MEAN_ANOMALY":114.4306,"EPHEMERIS_TYPE":0,"CLASSIFICATION_TYPE":"U","NORAD_CAT_ID":39204,"ELEMENT_SET_NO":999,"REV_AT_EPOCH":67473,"BSTAR":0.0018072367,"MEAN_MOTION_DOT":0.00021197,"MEAN_MOTION_DDOT":0}]
